[{"OBJECT_NAME":"STARLINK-6189","OBJECT_ID":"2023-061D","EPOCH":"2026-03-09T22:00:01.999584","MEAN_MOTION":15.13426184,"ECCENTRICITY":0.00021785,"INCLINATION":43.001,"RA_OF_ASC_NODE":195.8605,"ARG_OF_PERICENTER":262.2478,"MEAN_ANOMALY":82.0402,"EPHEMERIS_TYPE":0,"CLASSIFICATION_TYPE":"U","NORAD_CAT_ID":56377,"ELEMENT_SET_NO":999,"REV_AT_EPOCH":567,"BSTAR":0.002474963,"MEAN_MOTION_DOT":0.00045065,"MEAN_MOTION_DDOT":0},{"OBJECT_NAME":"FENGYUN 1C DEB","OBJECT_ID":"1999-025BNW","EPOCH":"2026-03-06T10:01:07.743936","MEAN_MOTION":15.11996262,"ECCENTRICITY":0.00143439,"INCLINATION":98.7438,"RA_OF_ASC_NODE":239.2093,"ARG_OF_PERICENTER":346.0612,"MEAN_ANOMALY":44.2284,"EPHEMERIS_TYPE":0,"CLASSIFICATION_TYPE":"U","NORAD_CAT_ID":31288,"ELEMENT_SET_NO":999,"REV_AT_EPOCH":98814,"BSTAR":0.0072973407,"MEAN_MOTION_DOT":0.00127645,"MEAN_MOTION_DDOT":0}]
